TOMORROW-S1             
1 60479U 24149M   26068.72470524  .00008620  00000+0  28856-3 0  9996
2 60479  97.3791 149.6044 0001819 207.2040 152.9106 15.31198362 86867
STARLINK-34760          
1 65359U 25190J   26068.59515239  .00023334  00000+0  79774-3 0  9997
2 65359  53.1601 168.4095 0001226  65.5219 294.5909 15.30189445 29276
